0 SMS 1 AKM
1 09998U 74033F   13282.03039279 -.00000150  00000-0  10000-3 0  5516
2 09998 003.7302 265.5182 0252545 083.6530 278.9883 01.16186273 81378
0 SMS 1 AKM
1 09998U 74033F   13287.19406987 -.00000118  00000-0  10000-3 0  5538
2 09998 003.7209 265.4085 0252559 083.8030 278.8178 01.16185442 81437
0 SMS 1 AKM
1 09998U 74033F   13289.77588787 -.00000143  00000-0  10000-3 0  5542
2 09998 003.7162 265.3491 0252554 083.9390 278.6675 01.16185641 81464
0 SMS 1 AKM
1 09998U 74033F   13292.35784378 -.00000173  00000-0  10000-3 0  5558
2 09998 003.7112 265.2927 0252497 084.0466 278.6046 01.16186012 81492
0 SMS 1 AKM
1 09998U 74033F   13294.93985971 -.00000185  00000-0  10000-3 0  5560
2 09998 003.7063 265.2339 0252491 084.1182 278.5970 01.16186249 81525
